{"type": "FeatureCollection", "features": [ {"type": "Feature", "properties": {"norad_id": 67064, "name": "HULIANWANG DIGUI 16F", "group": "last-30-days", "lat": 28.362374962159254, "lon": 150.79163247264074, "alt_km": 803.5487463246818, "timestamp": "2025-12-16T03:53:25.818999+00:00", "meta": {"OBJECT_NAME": "HULIANWANG DIGUI 16F", "OBJECT_ID": "2025-295F", "EPOCH": "2025-12-12T05:06:22.414752", "MEAN_MOTION": 14.26957674, "ECCENTRICITY": 0.00149026, "INCLINATION": 50.0027, "RA_OF_ASC_NODE": 14.4596, "ARG_OF_PERICENTER": 247.8107, "MEAN_ANOMALY": 112.1227, "EPHEMERIS_TYPE": 0, "CLASSIFICATION_TYPE": "U", "NORAD_CAT_ID": 67064, "ELEMENT_SET_NO": 999, "REV_AT_EPOCH": 4, "BSTAR": 2.6251967e-05, "MEAN_MOTION_DOT": -9.6e-07, "MEAN_MOTION_DDOT": 0}, "tle": {"line1": "1 67064U 25295F   25346.21275943 -.00000096  00000+0  26252-4 0  9995", "line2": "2 67064  50.0027  14.4596 0014902 247.8107 112.1227 14.26957674    44"}}, "geometry": {"type": "Point", "coordinates": [150.79163247264074, 28.362374962159254]}}, {"type": "Feature", "properties": {"norad_id": 67066, "name": "HULIANWANG DIGUI 16H", "group": "last-30-days", "lat": 33.20380223738388, "lon": 144.42805056060382, "alt_km": 804.3010672228256, "timestamp": "2025-12-16T03:53:25.819011+00:00", "meta": {"OBJECT_NAME": "HULIANWANG DIGUI 16H", "OBJECT_ID": "2025-295H", "EPOCH": "2025-12-12T05:06:20.088000", "MEAN_MOTION": 14.26429655, "ECCENTRICITY": 0.00114905, "INCLINATION": 50.0029, "RA_OF_ASC_NODE": 14.4606, "ARG_OF_PERICENTER": 248.6611, "MEAN_ANOMALY": 111.3077, "EPHEMERIS_TYPE": 0, "CLASSIFICATION_TYPE": "U", "NORAD_CAT_ID": 67066, "ELEMENT_SET_NO": 999, "REV_AT_EPOCH": 4, "BSTAR": 2.4353642e-05, "MEAN_MOTION_DOT": -1.01e-06, "MEAN_MOTION_DDOT": 0}, "tle": {"line1": "1 67066U 25295H   25346.21273250 -.00000101  00000+0  24354-4 0  9994", "line2": "2 67066  50.0029  14.4606 0011490 248.6611 111.3077 14.26429655    45"}}, "geometry": {"type": "Point", "coordinates": [144.42805056060382, 33.20380223738388]}}, {"type": "Feature", "properties": {"norad_id": 67067, "name": "HULIANWANG DIGUI 16J", "group": "last-30-days", "lat": 33.75157866948516, "lon": 143.64642110636913, "alt_km": 804.5225882729619, "timestamp": "2025-12-16T03:53:25.819021+00:00", "meta": {"OBJECT_NAME": "HULIANWANG DIGUI 16J", "OBJECT_ID": "2025-295J", "EPOCH": "2025-12-12T05:06:18.555264", "MEAN_MOTION": 14.26361638, "ECCENTRICITY": 0.00104901, "INCLINATION": 50.0044, "RA_OF_ASC_NODE": 14.4694, "ARG_OF_PERICENTER": 253.0387, "MEAN_ANOMALY": 106.9378, "EPHEMERIS_TYPE": 0, "CLASSIFICATION_TYPE": "U", "NORAD_CAT_ID": 67067, "ELEMENT_SET_NO": 999, "REV_AT_EPOCH": 4, "BSTAR": 6.475965e-06, "MEAN_MOTION_DOT": -1.45e-06, "MEAN_MOTION_DDOT": 0}, "tle": {"line1": "1 67067U 25295J   25346.21271476 -.00000145  00000+0  64760-5 0  9997", "line2": "2 67067  50.0044  14.4694 0010490 253.0387 106.9378 14.26361638    49"}}, "geometry": {"type": "Point", "coordinates": [143.64642110636913, 33.75157866948516]}}, {"type": "Feature", "properties": {"norad_id": 67070, "name": "2025-296B", "group": "last-30-days", "lat": -13.967853398049595, "lon": -81.52926923934889, "alt_km": 525.5930004772299, "timestamp": "2025-12-16T03:53:25.819032+00:00", "meta": {"OBJECT_NAME": "2025-296B", "OBJECT_ID": "2025-296B", "EPOCH": "2025-12-15T14:22:08.198400", "MEAN_MOTION": 15.17174125, "ECCENTRICITY": 0.0016004, "INCLINATION": 41.3531, "RA_OF_ASC_NODE": 85.2597, "ARG_OF_PERICENTER": 42.3814, "MEAN_ANOMALY": 317.8241, "EPHEMERIS_TYPE": 0, "CLASSIFICATION_TYPE": "U", "NORAD_CAT_ID": 67070, "ELEMENT_SET_NO": 999, "REV_AT_EPOCH": 38, "BSTAR": 8.1549e-05, "MEAN_MOTION_DOT": 1.448e-05, "MEAN_MOTION_DDOT": 0}, "tle": {"line1": "1 67070U 25296B   25349.59870600  .00001448  00000+0  81549-4 0  9999", "line2": "2 67070  41.3531  85.2597 0016004  42.3814 317.8241 15.17174125   389"}}, "geometry": {"type": "Point", "coordinates": [-81.52926923934889, -13.967853398049595]}}, {"type": "Feature", "properties": {"norad_id": 67071, "name": "KZ-11 R/B", "group": "last-30-days", "lat": 2.2477054646292087, "lon": -98.99105088504089, "alt_km": 1242.7488557243023, "timestamp": "2025-12-16T03:53:25.819042+00:00", "meta": {"OBJECT_NAME": "KZ-11 R/B", "OBJECT_ID": "2025-296C", "EPOCH": "2025-12-15T07:17:23.067744", "MEAN_MOTION": 14.54561084, "ECCENTRICITY": 0.0814627, "INCLINATION": 41.3063, "RA_OF_ASC_NODE": 88.0815, "ARG_OF_PERICENTER": 333.3345, "MEAN_ANOMALY": 22.7658, "EPHEMERIS_TYPE": 0, "CLASSIFICATION_TYPE": "U", "NORAD_CAT_ID": 67071, "ELEMENT_SET_NO": 999, "REV_AT_EPOCH": 33, "BSTAR": 0.00012185, "MEAN_MOTION_DOT": 0.01195702, "MEAN_MOTION_DDOT": 4.9919e-06}, "tle": {"line1": "1 67071U 25296C   25349.30373921  .01195702  49919-5  12185-3 0  9998", "line2": "2 67071  41.3063  88.0815 0814627 333.3345  22.7658 14.54561084   336"}}, "geometry": {"type": "Point", "coordinates": [-98.99105088504089, 2.2477054646292087]}}, {"type": "Feature", "properties": {"norad_id": 67072, "name": "ELECTRON R/B", "group": "last-30-days", "lat": 17.335894038693183, "lon": -39.82969195200092, "alt_km": 252.04666881959838, "timestamp": "2025-12-16T03:53:25.819054+00:00", "meta": {"OBJECT_NAME": "ELECTRON R/B", "OBJECT_ID": "2025-297A", "EPOCH": "2025-12-15T08:52:39.826560", "MEAN_MOTION": 15.72961278, "ECCENTRICITY": 0.02544944, "INCLINATION": 97.4819, "RA_OF_ASC_NODE": 136.9655, "ARG_OF_PERICENTER": 222.6983, "MEAN_ANOMALY": 135.4258, "EPHEMERIS_TYPE": 0, "CLASSIFICATION_TYPE": "U", "NORAD_CAT_ID": 67072, "ELEMENT_SET_NO": 999, "REV_AT_EPOCH": 20, "BSTAR": 0.0012850144, "MEAN_MOTION_DOT": 0.01616174, "MEAN_MOTION_DDOT": 2.25134e-06}, "tle": {"line1": "1 67072U 25297A   25349.36990540  .01616174  22513-5  12850-2 0  9998", "line2": "2 67072  97.4819 136.9655 0254494 222.6983 135.4258 15.72961278   205"}}, "geometry": {"type": "Point", "coordinates": [-39.82969195200092, 17.335894038693183]}}, {"type": "Feature", "properties": {"norad_id": 67073, "name": "RAISE-4", "group": "last-30-days", "lat": 56.886558724921684, "lon": 125.98977842147517, "alt_km": 542.1685932271221, "timestamp": "2025-12-16T03:53:25.819065+00:00", "meta": {"OBJECT_NAME": "RAISE-4", "OBJECT_ID": "2025-297B", "EPOCH": "2025-12-15T08:30:53.135424", "MEAN_MOTION": 15.0714672, "ECCENTRICITY": 0.00118135, "INCLINATION": 97.4849, "RA_OF_ASC_NODE": 136.8339, "ARG_OF_PERICENTER": 311.2228, "MEAN_ANOMALY": 48.7981, "EPHEMERIS_TYPE": 0, "CLASSIFICATION_TYPE": "U", "NORAD_CAT_ID": 67073, "ELEMENT_SET_NO": 999, "REV_AT_EPOCH": 18, "BSTAR": 0.00027090237, "MEAN_MOTION_DOT": 4.017e-05, "MEAN_MOTION_DDOT": 0}, "tle": {"line1": "1 67073U 25297B   25349.35478166  .00004017  00000+0  27090-3 0  9993", "line2": "2 67073  97.4849 136.8339 0011813 311.2228  48.7981 15.07146720   181"}}, "geometry": {"type": "Point", "coordinates": [125.98977842147517, 56.886558724921684]}}, {"type": "Feature", "properties": {"norad_id": 67074, "name": "ELECTRON KICK STAGE R/B", "group": "last-30-days", "lat": 34.155096319910086, "lon": 132.65912056424656, "alt_km": 503.6615428605928, "timestamp": "2025-12-16T03:53:25.819075+00:00", "meta": {"OBJECT_NAME": "ELECTRON KICK STAGE R/B", "OBJECT_ID": "2025-297C", "EPOCH": "2025-12-15T09:11:55.588128", "MEAN_MOTION": 15.54193681, "ECCENTRICITY": 0.02079064, "INCLINATION": 97.4818, "RA_OF_ASC_NODE": 136.9604, "ARG_OF_PERICENTER": 259.8871, "MEAN_ANOMALY": 97.8873, "EPHEMERIS_TYPE": 0, "CLASSIFICATION_TYPE": "U", "NORAD_CAT_ID": 67074, "ELEMENT_SET_NO": 999, "REV_AT_EPOCH": 19, "BSTAR": 0.0012366887, "MEAN_MOTION_DOT": 0.00215096, "MEAN_MOTION_DDOT": 1.4004196e-05}, "tle": {"line1": "1 67074U 25297C   25349.38328227  .00215096  14004-4  12367-2 0  9994", "line2": "2 67074  97.4818 136.9604 0207906 259.8871  97.8873 15.54193681   191"}}, "geometry": {"type": "Point", "coordinates": [132.65912056424656, 34.155096319910086]}}]}